{
    "CCSDS_OMM_VERS": "3.0",
    "COMMENT": "GENERATED VIA SPACE-TRACK.ORG API",
    "CREATION_DATE": "2025-11-24T07:26:19",
    "ORIGINATOR": "18 SPCS",
    "OBJECT_NAME": "BEIDOU 13",
    "OBJECT_ID": "2012-018B",
    "CENTER_NAME": "EARTH",
    "REF_FRAME": "TEME",
    "TIME_SYSTEM": "UTC",
    "MEAN_ELEMENT_THEORY": "SGP4",
    "EPOCH": "2025-11-24T00:03:50.605056",
    "MEAN_MOTION": "1.86229625",
    "ECCENTRICITY": "0.00157660",
    "INCLINATION": "55.8377",
    "RA_OF_ASC_NODE": "311.0181",
    "ARG_OF_PERICENTER": "275.3565",
    "MEAN_ANOMALY": "84.4599",
    "EPHEMERIS_TYPE": "0",
    "CLASSIFICATION_TYPE": "U",
    "NORAD_CAT_ID": "38251",
    "ELEMENT_SET_NO": "999",
    "REV_AT_EPOCH": "9212",
    "BSTAR": "0.00000000000000",
    "MEAN_MOTION_DOT": "-0.00000048",
    "MEAN_MOTION_DDOT": "0.0000000000000",
    "SEMIMAJOR_AXIS": "27906.326",
    "PERIOD": "773.239",
    "APOAPSIS": "21572.188",
    "PERIAPSIS": "21484.194",
    "OBJECT_TYPE": "PAYLOAD",
    "RCS_SIZE": "LARGE",
    "COUNTRY_CODE": "PRC",
    "LAUNCH_DATE": "2012-04-29",
    "SITE": "XSC",
    "DECAY_DATE": null,
    "FILE": "4896936",
    "GP_ID": "303365502",
    "TLE_LINE0": "0 BEIDOU 13",
    "TLE_LINE1": "1 38251U 12018B   25328.00266904 -.00000048  00000-0  00000+0 0  9990",
    "TLE_LINE2": "2 38251  55.8377 311.0181 0015766 275.3565  84.4599  1.86229625 92123"
}